[
    {
        "CCSDS_OMM_VERS": "3.0",
        "COMMENT": "GENERATED VIA SPACE-TRACK.ORG API",
        "CREATION_DATE": "2025-05-03T23:06:31",
        "ORIGINATOR": "18 SPCS",
        "OBJECT_NAME": "BEIDOU 3M21",
        "OBJECT_ID": "2019-078A",
        "CENTER_NAME": "EARTH",
        "REF_FRAME": "TEME",
        "TIME_SYSTEM": "UTC",
        "MEAN_ELEMENT_THEORY": "SGP4",
        "EPOCH": "2025-05-03T09:19:28.712928",
        "MEAN_MOTION": "1.86232113",
        "ECCENTRICITY": "0.00068830",
        "INCLINATION": "54.3047",
        "RA_OF_ASC_NODE": "314.2061",
        "ARG_OF_PERICENTER": "37.6508",
        "MEAN_ANOMALY": "322.3981",
        "EPHEMERIS_TYPE": "0",
        "CLASSIFICATION_TYPE": "U",
        "NORAD_CAT_ID": "44793",
        "ELEMENT_SET_NO": "999",
        "REV_AT_EPOCH": "3702",
        "BSTAR": "0.00000000000000",
        "MEAN_MOTION_DOT": "-0.00000067",
        "MEAN_MOTION_DDOT": "0.0000000000000",
        "SEMIMAJOR_AXIS": "27906.077",
        "PERIOD": "773.229",
        "APOAPSIS": "21547.150",
        "PERIAPSIS": "21508.735",
        "OBJECT_TYPE": "PAYLOAD",
        "RCS_SIZE": "LARGE",
        "COUNTRY_CODE": "PRC",
        "LAUNCH_DATE": "2019-11-23",
        "SITE": "XSC",
        "DECAY_DATE": null,
        "FILE": "4718251",
        "GP_ID": "286782455",
        "TLE_LINE0": "0 BEIDOU 3M21",
        "TLE_LINE1": "1 44793U 19078A   25123.38852677 -.00000067  00000-0  00000+0 0  9994",
        "TLE_LINE2": "2 44793  54.3047 314.2061 0006883  37.6508 322.3981  1.86232113 37020"
    }
]